{
  "norad_id": 53935,
  "name": "STARLINK-5000",
  "history": [
    {
      "epoch": "2026-03-28T22:00:01.999584Z",
      "apogee_km": 495.40489801480544,
      "perigee_km": 493.86402265339893,
      "latitude_deg": 14.680010122849065,
      "longitude_deg": 56.58683809776359,
      "height_km": 494.22409295336183,
      "semi_major_axis_km": 6872.771460334102,
      "eccentricity": 0.0001121,
      "inclination_deg": 53.2183,
      "raan_deg": 201.6942,
      "arg_perigee_deg": 58.48,
      "mean_anomaly_deg": 319.9601,
      "mean_motion_rev_day": 15.23719088
    },
    {
      "epoch": "2026-03-29T04:00:01.999584Z",
      "apogee_km": 494.9516630147282,
      "perigee_km": 493.50846593118877,
      "latitude_deg": -37.76846527691009,
      "longitude_deg": -81.21264375930983,
      "height_km": 507.028517710866,
      "semi_major_axis_km": 6872.367064472958,
      "eccentricity": 0.000105,
      "inclination_deg": 53.2185,
      "raan_deg": 200.5451,
      "arg_perigee_deg": 88.8212,
      "mean_anomaly_deg": 221.6217,
      "mean_motion_rev_day": 15.23853582
    },
    {
      "epoch": "2026-03-30T04:00:01.999584Z",
      "apogee_km": 494.0987814015325,
      "perigee_km": 492.2916210326139,
      "latitude_deg": 31.011034092065902,
      "longitude_deg": -25.07463382513717,
      "height_km": 494.32206803332707,
      "semi_major_axis_km": 6871.332201217073,
      "eccentricity": 0.0001315,
      "inclination_deg": 53.2185,
      "raan_deg": 195.9501,
      "arg_perigee_deg": 74.5545,
      "mean_anomaly_deg": 325.354,
      "mean_motion_rev_day": 15.24197847
    },
    {
      "epoch": "2026-03-30T06:00:02.000160Z",
      "apogee_km": 494.18987683942487,
      "perigee_km": 491.9887482024724,
      "latitude_deg": 32.90633625152042,
      "longitude_deg": 69.15788662477682,
      "height_km": 494.8920303531062,
      "semi_major_axis_km": 6871.226312520948,
      "eccentricity": 0.00016017,
      "inclination_deg": 53.2186,
      "raan_deg": 195.567,
      "arg_perigee_deg": 68.5356,
      "mean_anomaly_deg": 68.8857,
      "mean_motion_rev_day": 15.2423308
    },
    {
      "epoch": "2026-03-30T14:00:03.000384Z",
      "apogee_km": 494.0467918022923,
      "perigee_km": 491.49054005834023,
      "latitude_deg": 9.853000823715082,
      "longitude_deg": -31.368188472532356,
      "height_km": 493.19134564933535,
      "semi_major_axis_km": 6870.905665930316,
      "eccentricity": 0.00018602,
      "inclination_deg": 53.2185,
      "raan_deg": 194.0365,
      "arg_perigee_deg": 65.7925,
      "mean_anomaly_deg": 101.8267,
      "mean_motion_rev_day": 15.24339779
    },
    {
      "epoch": "2026-03-30T22:00:00.999936Z",
      "apogee_km": 493.3243806253995,
      "perigee_km": 491.44213289585787,
      "latitude_deg": -14.27867403772818,
      "longitude_deg": -134.89531844076038,
      "height_km": 496.8113981469356,
      "semi_major_axis_km": 6870.520256760628,
      "eccentricity": 0.00013698,
      "inclination_deg": 53.2187,
      "raan_deg": 192.5036,
      "arg_perigee_deg": 68.7825,
      "mean_anomaly_deg": 128.9393,
      "mean_motion_rev_day": 15.24468045
    },
    {
      "epoch": "2026-03-31T20:00:01.999008Z",
      "apogee_km": 491.36641167861217,
      "perigee_km": 489.0078291756563,
      "latitude_deg": -9.381152565311613,
      "longitude_deg": -113.86959166241236,
      "height_km": 493.247239310084,
      "semi_major_axis_km": 6868.3241204271335,
      "eccentricity": 0.0001717,
      "inclination_deg": 53.2181,
      "raan_deg": 188.2883,
      "arg_perigee_deg": 78.3651,
      "mean_anomaly_deg": 113.1909,
      "mean_motion_rev_day": 15.25199273
    },
    {
      "epoch": "2026-04-01T20:00:01.999008Z",
      "apogee_km": 488.3016196532981,
      "perigee_km": 487.0026123525504,
      "latitude_deg": -50.5960682899926,
      "longitude_deg": -11.339443274265534,
      "height_km": 505.79497290548187,
      "semi_major_axis_km": 6865.789116002924,
      "eccentricity": 9.46e-05,
      "inclination_deg": 53.218,
      "raan_deg": 183.6844,
      "arg_perigee_deg": 110.0698,
      "mean_anomaly_deg": 175.6844,
      "mean_motion_rev_day": 15.26044058
    },
    {
      "epoch": "2026-04-02T20:00:01.999008Z",
      "apogee_km": 486.0094291888681,
      "perigee_km": 484.6696785655513,
      "latitude_deg": 18.18777786078427,
      "longitude_deg": 62.02833167230412,
      "height_km": 485.2153713696663,
      "semi_major_axis_km": 6863.47655387721,
      "eccentricity": 9.76e-05,
      "inclination_deg": 53.2176,
      "raan_deg": 179.0743,
      "arg_perigee_deg": 68.6256,
      "mean_anomaly_deg": 314.2784,
      "mean_motion_rev_day": 15.26815395
    },
    {
      "epoch": "2026-04-02T22:00:01.999584Z",
      "apogee_km": 487.1447579962287,
      "perigee_km": 485.08479603794603,
      "latitude_deg": 43.34780709772848,
      "longitude_deg": 152.85154374422117,
      "height_km": 489.67513672658987,
      "semi_major_axis_km": 6864.251777017087,
      "eccentricity": 0.00015005,
      "inclination_deg": 53.218,
      "raan_deg": 178.6892,
      "arg_perigee_deg": 78.9915,
      "mean_anomaly_deg": 42.2519,
      "mean_motion_rev_day": 15.26556753
    },
    {
      "epoch": "2026-04-03T20:00:01.999008Z",
      "apogee_km": 484.78888383199865,
      "perigee_km": 482.2953496409764,
      "latitude_deg": 42.26648716563819,
      "longitude_deg": 179.77705101898619,
      "height_km": 486.8009559235215,
      "semi_major_axis_km": 6861.679116736487,
      "eccentricity": 0.0001817,
      "inclination_deg": 53.2175,
      "raan_deg": 174.4582,
      "arg_perigee_deg": 74.5652,
      "mean_anomaly_deg": 48.533,
      "mean_motion_rev_day": 15.27415365
    },
    {
      "epoch": "2026-04-04T06:00:02.000160Z",
      "apogee_km": 482.8358538244047,
      "perigee_km": 480.5578402004876,
      "latitude_deg": -51.082178263664034,
      "longitude_deg": 137.0017866225792,
      "height_km": 500.5022487728325,
      "semi_major_axis_km": 6859.833847012445,
      "eccentricity": 0.00016604,
      "inclination_deg": 53.2173,
      "raan_deg": 172.5322,
      "arg_perigee_deg": 86.3209,
      "mean_anomaly_deg": 169.4156,
      "mean_motion_rev_day": 15.2803171
    },
    {
      "epoch": "2026-04-05T14:00:03.000384Z",
      "apogee_km": 479.14828662259697,
      "perigee_km": 477.44240625480325,
      "latitude_deg": 27.94401521105759,
      "longitude_deg": 145.6971815230631,
      "height_km": 478.880151667014,
      "semi_major_axis_km": 6856.4323464387,
      "eccentricity": 0.0001244,
      "inclination_deg": 53.2167,
      "raan_deg": 166.3681,
      "arg_perigee_deg": 55.4158,
      "mean_anomaly_deg": 340.2855,
      "mean_motion_rev_day": 15.29168944
    },
    {
      "epoch": "2026-04-05T20:00:03.000384Z",
      "apogee_km": 479.22143717781364,
      "perigee_km": 477.75823301120454,
      "latitude_deg": -21.77632192404089,
      "longitude_deg": 13.783081968156267,
      "height_km": 484.7317152609405,
      "semi_major_axis_km": 6856.626835094509,
      "eccentricity": 0.0001067,
      "inclination_deg": 53.2161,
      "raan_deg": 165.2084,
      "arg_perigee_deg": 69.7217,
      "mean_anomaly_deg": 262.9417,
      "mean_motion_rev_day": 15.29103882
    },
    {
      "epoch": "2026-04-06T06:00:02.000160Z",
      "apogee_km": 478.5544477711601,
      "perigee_km": 476.2062959609493,
      "latitude_deg": 49.828709366922645,
      "longitude_deg": -3.0045522427250746,
      "height_km": 482.1558525580264,
      "semi_major_axis_km": 6855.517371866054,
      "eccentricity": 0.00017126,
      "inclination_deg": 53.2165,
      "raan_deg": 163.2778,
      "arg_perigee_deg": 77.3964,
      "mean_anomaly_deg": 30.4222,
      "mean_motion_rev_day": 15.29475091
    },
    {
      "epoch": "2026-04-07T14:00:01.999872Z",
      "apogee_km": 473.6652819410365,
      "perigee_km": 471.9096640355883,
      "latitude_deg": -51.243628200667054,
      "longitude_deg": -0.9193913955858933,
      "height_km": 491.4076712924311,
      "semi_major_axis_km": 6850.924472988312,
      "eccentricity": 0.00012813,
      "inclination_deg": 53.2164,
      "raan_deg": 157.0969,
      "arg_perigee_deg": 82.5691,
      "mean_anomaly_deg": 173.6988,
      "mean_motion_rev_day": 15.31013402
    },
    {
      "epoch": "2026-04-07T20:00:00.999360Z",
      "apogee_km": 473.082850340862,
      "perigee_km": 470.9182068818209,
      "latitude_deg": -11.891145475381792,
      "longitude_deg": -151.1673068601952,
      "height_km": 475.5626447658124,
      "semi_major_axis_km": 6850.137528611341,
      "eccentricity": 0.000158,
      "inclination_deg": 53.2159,
      "raan_deg": 155.9338,
      "arg_perigee_deg": 85.4222,
      "mean_anomaly_deg": 109.2831,
      "mean_motion_rev_day": 15.31277234
    },
    {
      "epoch": "2026-04-08T16:00:01.999584Z",
      "apogee_km": 471.03427700259545,
      "perigee_km": 468.96490708721194,
      "latitude_deg": 48.359369384976915,
      "longitude_deg": -161.6168462894423,
      "height_km": 474.9189290084753,
      "semi_major_axis_km": 6848.136592044903,
      "eccentricity": 0.00015109,
      "inclination_deg": 53.2164,
      "raan_deg": 152.0631,
      "arg_perigee_deg": 52.3401,
      "mean_anomaly_deg": 59.0577,
      "mean_motion_rev_day": 15.31948412
    },
    {
      "epoch": "2026-04-09T20:00:01.999008Z",
      "apogee_km": 469.2955487526797,
      "perigee_km": 466.7159221699576,
      "latitude_deg": 49.013850296619985,
      "longitude_deg": 67.38852686526747,
      "height_km": 472.3212279723528,
      "semi_major_axis_km": 6846.142735461318,
      "eccentricity": 0.0001884,
      "inclination_deg": 53.2167,
      "raan_deg": 146.6332,
      "arg_perigee_deg": 65.127,
      "mean_anomaly_deg": 4.9901,
      "mean_motion_rev_day": 15.32617703
    }
  ]
}